LANDSAT 9               
1 49260U 21088A   24170.20067058  .00000589  00000+0  14064-3 0  9991
2 49260  98.1870 239.8029 0001082 105.4403 254.6915 14.57138028144838
